{
  "type": "FeatureCollection",
  "features": [
    {
      "type": "Feature",
      "properties": {
        "norad_id": 33860,
        "name": "IRIDIUM 33 DEB",
        "group": "iridium-33-debris",
        "lat": 21.542607644816602,
        "lon": 23.57604599630496,
        "alt_km": 667.3955513109804,
        "timestamp": "2025-12-24T05:51:19.993937+00:00",
        "meta_object_name": "IRIDIUM 33 DEB",
        "meta_object_id": "1997-051AD",
        "meta_epoch": "2025-12-23T12:19:45.141888",
        "meta_mean_motion": 14.67490228,
        "meta_eccentricity": 0.00061594,
        "meta_inclination": 86.3821,
        "meta_ra_of_asc_node": 22.4681,
        "meta_arg_of_pericenter": 315.746,
        "meta_mean_anomaly": 170.4243,
        "meta_ephemeris_type": 0,
        "meta_classification_type": "U",
        "meta_norad_cat_id": 33860,
        "meta_element_set_no": 999,
        "meta_rev_at_epoch": 88880,
        "meta_bstar": 0.0011382297,
        "meta_mean_motion_dot": 6.471e-05,
        "meta_mean_motion_ddot": 0,
        "tle_line1": "1 33860U 97051AD  25357.51371692  .00006471  00000+0  11382-2 0  9992",
        "tle_line2": "2 33860  86.3821  22.4681 0006159 315.7460 170.4243 14.67490228888806"
      },
      "geometry": {
        "type": "Point",
        "coordinates": [
          23.57604599630496,
          21.542607644816602
        ]
      }
    },
    {
      "type": "Feature",
      "properties": {
        "norad_id": 33862,
        "name": "IRIDIUM 33 DEB",
        "group": "iridium-33-debris",
        "lat": 34.329467428834626,
        "lon": -150.00256905282336,
        "alt_km": 675.5382327920734,
        "timestamp": "2025-12-24T05:51:19.993948+00:00",
        "meta_object_name": "IRIDIUM 33 DEB",
        "meta_object_id": "1997-051AF",
        "meta_epoch": "2025-12-23T01:32:54.489984",
        "meta_mean_motion": 14.6963106,
        "meta_eccentricity": 0.0052374,
        "meta_inclination": 86.4076,
        "meta_ra_of_asc_node": 32.9766,
        "meta_arg_of_pericenter": 34.4882,
        "meta_mean_anomaly": 354.3477,
        "meta_ephemeris_type": 0,
        "meta_classification_type": "U",
        "meta_norad_cat_id": 33862,
        "meta_element_set_no": 999,
        "meta_rev_at_epoch": 88975,
        "meta_bstar": 0.0015854731,
        "meta_mean_motion_dot": 9.654e-05,
        "meta_mean_motion_ddot": 0,
        "tle_line1": "1 33862U 97051AF  25357.06451956  .00009654  00000+0  15855-2 0  9991",
        "tle_line2": "2 33862  86.4076  32.9766 0052374  34.4882 354.3477 14.69631060889754"
      },
      "geometry": {
        "type": "Point",
        "coordinates": [
          -150.00256905282336,
          34.329467428834626
        ]
      }
    },
    {
      "type": "Feature",
      "properties": {
        "norad_id": 33866,
        "name": "IRIDIUM 33 DEB",
        "group": "iridium-33-debris",
        "lat": -0.6326875663551429,
        "lon": -91.79037866269614,
        "alt_km": 763.1960681817418,
        "timestamp": "2025-12-24T05:51:19.993959+00:00",
        "meta_object_name": "IRIDIUM 33 DEB",
        "meta_object_id": "1997-051AK",
        "meta_epoch": "2025-12-23T14:10:53.283072",
        "meta_mean_motion": 14.25306443,
        "meta_eccentricity": 0.01151166,
        "meta_inclination": 86.2999,
        "meta_ra_of_asc_node": 88.445,
        "meta_arg_of_pericenter": 127.0066,
        "meta_mean_anomaly": 303.4648,
        "meta_ephemeris_type": 0,
        "meta_classification_type": "U",
        "meta_norad_cat_id": 33866,
        "meta_element_set_no": 999,
        "meta_rev_at_epoch": 86965,
        "meta_bstar": 0.00052921027,
        "meta_mean_motion_dot": 1.355e-05,
        "meta_mean_motion_ddot": 0,
        "tle_line1": "1 33866U 97051AK  25357.59089448  .00001355  00000+0  52921-3 0  9992",
        "tle_line2": "2 33866  86.2999  88.4450 0115116 127.0066 303.4648 14.25306443869651"
      },
      "geometry": {
        "type": "Point",
        "coordinates": [
          -91.79037866269614,
          -0.6326875663551429
        ]
      }
    },
    {
      "type": "Feature",
      "properties": {
        "norad_id": 33867,
        "name": "IRIDIUM 33 DEB",
        "group": "iridium-33-debris",
        "lat": -35.553598845893106,
        "lon": 166.59843644490692,
        "alt_km": 236.33296711165895,
        "timestamp": "2025-12-24T05:51:19.993971+00:00",
        "meta_object_name": "IRIDIUM 33 DEB",
        "meta_object_id": "1997-051AL",
        "meta_epoch": "2025-12-23T20:01:30.593568",
        "meta_mean_motion": 16.07905619,
        "meta_eccentricity": 0.00123823,
        "meta_inclination": 86.3716,
        "meta_ra_of_asc_node": 344.225,
        "meta_arg_of_pericenter": 111.097,
        "meta_mean_anomaly": 249.1645,
        "meta_ephemeris_type": 0,
        "meta_classification_type": "U",
        "meta_norad_cat_id": 33867,
        "meta_element_set_no": 999,
        "meta_rev_at_epoch": 89686,
        "meta_bstar": 0.010041813,
        "meta_mean_motion_dot": 0.05649041,
        "meta_mean_motion_ddot": 0.086118142,
        "tle_line1": "1 33867U 97051AL  25357.83438187  .05649041  86118-1  10042-1 0  9995",
        "tle_line2": "2 33867  86.3716 344.2250 0012382 111.0970 249.1645 16.07905619896867"
      },
      "geometry": {
        "type": "Point",
        "coordinates": [
          166.59843644490692,
          -35.553598845893106
        ]
      }
    },
    {
      "type": "Feature",
      "properties": {
        "norad_id": 33870,
        "name": "IRIDIUM 33 DEB",
        "group": "iridium-33-debris",
        "lat": 49.06783343919732,
        "lon": 57.523252330712566,
        "alt_km": 735.2612775440266,
        "timestamp": "2025-12-24T05:51:19.993982+00:00",
        "meta_object_name": "IRIDIUM 33 DEB",
        "meta_object_id": "1997-051AP",
        "meta_epoch": "2025-12-23T04:59:30.895872",
        "meta_mean_motion": 14.45900909,
        "meta_eccentricity": 0.00225031,
        "meta_inclination": 86.3735,
        "meta_ra_of_asc_node": 53.7735,
        "meta_arg_of_pericenter": 144.8377,
        "meta_mean_anomaly": 275.5744,
        "meta_ephemeris_type": 0,
        "meta_classification_type": "U",
        "meta_norad_cat_id": 33870,
        "meta_element_set_no": 999,
        "meta_rev_at_epoch": 88288,
        "meta_bstar": 0.00068782741,
        "meta_mean_motion_dot": 2.471e-05,
        "meta_mean_motion_ddot": 0,
        "tle_line1": "1 33870U 97051AP  25357.20799648  .00002471  00000+0  68783-3 0  9998",
        "tle_line2": "2 33870  86.3735  53.7735 0022503 144.8377 275.5744 14.45900909882880"
      },
      "geometry": {
        "type": "Point",
        "coordinates": [
          57.523252330712566,
          49.06783343919732
        ]
      }
    },
    {
      "type": "Feature",
      "properties": {
        "norad_id": 33881,
        "name": "IRIDIUM 33 DEB",
        "group": "iridium-33-debris",
        "lat": 3.53563211235842,
        "lon": 101.96669796155486,
        "alt_km": 736.0080241424503,
        "timestamp": "2025-12-24T05:51:19.993993+00:00",
        "meta_object_name": "IRIDIUM 33 DEB",
        "meta_object_id": "1997-051BA",
        "meta_epoch": "2025-12-23T08:42:51.466752",
        "meta_mean_motion": 14.56755437,
        "meta_eccentricity": 0.00611335,
        "meta_inclination": 86.3867,
        "meta_ra_of_asc_node": 102.1259,
        "meta_arg_of_pericenter": 140.3632,
        "meta_mean_anomaly": 287.1134,
        "meta_ephemeris_type": 0,
        "meta_classification_type": "U",
        "meta_norad_cat_id": 33881,
        "meta_element_set_no": 999,
        "meta_rev_at_epoch": 87655,
        "meta_bstar": 0.002190759,
        "meta_mean_motion_dot": 0.00010075,
        "meta_mean_motion_ddot": 0,
        "tle_line1": "1 33881U 97051BA  25357.36309568  .00010075  00000+0  21908-2 0  9991",
        "tle_line2": "2 33881  86.3867 102.1259 0061133 140.3632 287.1134 14.56755437876550"
      },
      "geometry": {
        "type": "Point",
        "coordinates": [
          101.96669796155486,
          3.53563211235842
        ]
      }
    },
    {
      "type": "Feature",
      "properties": {
        "norad_id": 33884,
        "name": "IRIDIUM 33 DEB",
        "group": "iridium-33-debris",
        "lat": 84.83418295886406,
        "lon": 140.01389989468086,
        "alt_km": 635.5441163176729,
        "timestamp": "2025-12-24T05:51:19.994004+00:00",
        "meta_object_name": "IRIDIUM 33 DEB",
        "meta_object_id": "1997-051BD",
        "meta_epoch": "2025-12-23T18:51:51.523200",
        "meta_mean_motion": 14.77639332,
        "meta_eccentricity": 0.0008924,
        "meta_inclination": 86.3696,
        "meta_ra_of_asc_node": 4.8308,
        "meta_arg_of_pericenter": 280.0291,
        "meta_mean_anomaly": 259.06,
        "meta_ephemeris_type": 0,
        "meta_classification_type": "U",
        "meta_norad_cat_id": 33884,
        "meta_element_set_no": 999,
        "meta_rev_at_epoch": 89010,
        "meta_bstar": 0.0015648799,
        "meta_mean_motion_dot": 0.00011231,
        "meta_mean_motion_ddot": 0,
        "tle_line1": "1 33884U 97051BD  25357.78601300  .00011231  00000+0  15649-2 0  9999",
        "tle_line2": "2 33884  86.3696   4.8308 0008924 280.0291 259.0600 14.77639332890109"
      },
      "geometry": {
        "type": "Point",
        "coordinates": [
          140.01389989468086,
          84.83418295886406
        ]
      }
    }
  ]
}